[{"OBJECT_NAME":"STARLINK-32865","OBJECT_ID":"2025-029E","EPOCH":"2026-03-09T17:23:09.113856","MEAN_MOTION":15.30200671,"ECCENTRICITY":8.553e-5,"INCLINATION":53.159,"RA_OF_ASC_NODE":232.2423,"ARG_OF_PERICENTER":75.442,"MEAN_ANOMALY":284.6676,"EPHEMERIS_TYPE":0,"CLASSIFICATION_TYPE":"U","NORAD_CAT_ID":62952,"ELEMENT_SET_NO":999,"REV_AT_EPOCH":6133,"BSTAR":0.00088600599,"MEAN_MOTION_DOT":0.00025974,"MEAN_MOTION_DDOT":0},{"OBJECT_NAME":"OBJECT BC","OBJECT_ID":"2025-313BC","EPOCH":"2026-03-09T04:33:08.504064","MEAN_MOTION":15.29126358,"ECCENTRICITY":0.00084789,"INCLINATION":97.3985,"RA_OF_ASC_NODE":144.811,"ARG_OF_PERICENTER":328.9209,"MEAN_ANOMALY":31.1528,"EPHEMERIS_TYPE":0,"CLASSIFICATION_TYPE":"U","NORAD_CAT_ID":67298,"ELEMENT_SET_NO":999,"REV_AT_EPOCH":789,"BSTAR":0.0026410397,"MEAN_MOTION_DOT":0.00075331,"MEAN_MOTION_DDOT":0}]
